$$SOE
2460721.500000000, A.D. 2025-Feb-15 00:00:00.0000, -1.114626906689196E+08, -3.251817722313957E+08, 4.066602594283345E+07,
2460728.500000000, A.D. 2025-Feb-22 00:00:00.0000, -9.876865776799785E+07, -3.253934258066181E+08, 4.100189226401396E+07,
2460735.500000000, A.D. 2025-Mar-01 00:00:00.0000, -8.595538128377584E+07, -3.252120328717514E+08, 4.128822203005663E+07,
2460742.500000000, A.D. 2025-Mar-08 00:00:00.0000, -7.303498643360673E+07, -3.246251206225093E+08, 4.152305765002039E+07,
2460749.500000000, A.D. 2025-Mar-15 00:00:00.0000, -6.002063526997603E+07, -3.236203055267996E+08, 4.170442852924858E+07,
2460756.500000000, A.D. 2025-Mar-22 00:00:00.0000, -4.692657847028270E+07, -3.221853662229961E+08, 4.183035989081120E+07,
2460763.500000000, A.D. 2025-Mar-29 00:00:00.0000, -3.376820263606989E+07, -3.203083281198758E+08, 4.189888262270698E+07,
2460770.500000000, A.D. 2025-Apr-05 00:00:00.0000, -2.056207146607926E+07, -3.179775570189687E+08, 4.190804447030079E+07,
2460777.500000000, A.D. 2025-Apr-12 00:00:00.0000, -7.325961230797491E+06, -3.151818619837587E+08, 4.185592283936481E+07,
2460784.500000000, A.D. 2025-Apr-19 00:00:00.0000, 5.921110951622501E+06, -3.119106084909467E+08, 4.174063921640655E+07,
2460791.500000000, A.D. 2025-Apr-26 00:00:00.0000, 1.915886817726644E+07, -3.081538419972764E+08, 4.156037520099308E+07,
2460798.500000000, A.D. 2025-May-03 00:00:00.0000, 3.236576629873563E+07, -3.039024215551808E+08, 4.131339014417037E+07,
2460805.500000000, A.D. 2025-May-10 00:00:00.0000, 4.551900013560800E+07, -2.991481627867496E+08, 4.099804035255462E+07,
2460812.500000000, A.D. 2025-May-17 00:00:00.0000, 5.859452563092130E+07, -2.938839891860661E+08, 4.061279976378389E+07,
2460819.500000000, A.D. 2025-May-24 00:00:00.0000, 7.156710038165821E+07, -2.881040902887226E+08, 4.015628192713080E+07,
2460826.500000000, A.D. 2025-May-31 00:00:00.0000, 8.441034514419481E+07, -2.818040843838445E+08, 3.962726306081611E+07,
2460833.500000000, A.D. 2025-Jun-07 00:00:00.0000, 9.709682793116222E+07, -2.749811820149285E+08, 3.902470602677706E+07,
2460840.500000000, A.D. 2025-Jun-14 00:00:00.0000, 1.095981700756020E+08, -2.676343478430614E+08, 3.834778500957914E+07,
2460847.500000000, A.D. 2025-Jun-21 00:00:00.0000, 1.218851768105827E+08, -2.597644605298857E+08, 3.759591006799411E+07,
2460854.500000000, A.D. 2025-Jun-28 00:00:00.0000, 1.339279962635528E+08, -2.513744647958285E+08, 3.676875089399466E+07,
2460861.500000000, A.D. 2025-Jul-05 00:00:00.0000, 1.456963054034971E+08, -2.424695090262731E+08, 3.586625950571404E+07,
2460868.500000000, A.D. 2025-Jul-12 00:00:00.0000, 1.571595209526154E+08, -2.330570644769703E+08, 3.488869126921371E+07,
2460875.500000000, A.D. 2025-Jul-19 00:00:00.0000, 1.682870336953025E+08, -2.231470217775993E+08, 3.383662349366292E+07,
2460882.500000000, A.D. 2025-Jul-26 00:00:00.0000, 1.790484636019698E+08, -2.127517599991997E+08, 3.271097086908019E+07,
2460889.500000000, A.D. 2025-Aug-02 00:00:00.0000, 1.894139319723070E+08, -2.018861837967782E+08, 3.151299705086695E+07,
2460896.500000000, A.D. 2025-Aug-09 00:00:00.0000, 1.993543457176326E+08, -1.905677247526668E+08, 3.024432174567422E+07,
2460903.500000000, A.D. 2025-Aug-16 00:00:00.0000, 2.088416880103089E+08, -1.788163039262607E+08, 2.890692273001948E+07,
2460910.500000000, A.D. 2025-Aug-23 00:00:00.0000, 2.178493089783310E+08, -1.666542536099471E+08, 2.750313234641480E+07,
2460917.500000000, A.D. 2025-Aug-30 00:00:00.0000, 2.263522096407324E+08, -1.541061968856936E+08, 2.603562824177596E+07,
2460924.500000000, A.D. 2025-Sep-06 00:00:00.0000, 2.343273103031912E+08, -1.411988847368774E+08, 2.450741848777952E+07,
2460931.500000000, A.D. 2025-Sep-13 00:00:00.0000, 2.417536944806319E+08, -1.279609954570866E+08, 2.292182116322865E+07,
2460938.500000000, A.D. 2025-Sep-20 00:00:00.0000, 2.486128248192978E+08, -1.144229017334502E+08, 2.128243830027034E+07,
2460945.500000000, A.D. 2025-Sep-27 00:00:00.0000, 2.548887260956131E+08, -1.006164073894857E+08, 1.959312488970419E+07,
2460952.500000000, A.D. 2025-Oct-04 00:00:00.0000, 2.605681284234515E+08, -8.657445950105190E+07, 1.785795389229278E+07,
2460959.500000000, A.D. 2025-Oct-11 00:00:00.0000, 2.656405668198818E+08, -7.233084394485626E+07, 1.608117807739390E+07,
2460966.500000000, A.D. 2025-Oct-18 00:00:00.0000, 2.700984354793533E+08, -5.791987228984476E+07, 1.426718961030333E+07,
2460973.500000000, A.D. 2025-Oct-25 00:00:00.0000, 2.739369965745940E+08, -4.337606780584693E+07, 1.242047840539137E+07,
2460980.500000000, A.D. 2025-Nov-01 00:00:00.0000, 2.771543448828366E+08, -2.873385813937644E+07, 1.054559028121335E+07,
2460987.500000000, A.D. 2025-Nov-08 00:00:00.0000, 2.797513309846129E+08, -1.402728169283337E+07, 8.647085911322903E+06,
2460994.500000000, A.D. 2025-Nov-15 00:00:00.0000, 2.817314471399139E+08, 7.102860762595551E+05, 6.729501468502513E+06,
2461001.500000000, A.D. 2025-Nov-22 00:00:00.0000, 2.831006811709643E+08, 1.544638156431044E+07, 4.797311739414642E+06,
2461008.500000000, A.D. 2025-Nov-29 00:00:00.0000, 2.838673437992507E+08, 3.014967439823004E+07, 2.854896469593078E+06,
2461015.500000000, A.D. 2025-Dec-06 00:00:00.0000, 2.840418731539265E+08, 4.479015853085069E+07, 9.065106345696095E+05,
2461022.500000000, A.D. 2025-Dec-13 00:00:00.0000, 2.836366229593307E+08, 5.933930829343624E+07, -1.043741346273348E+06,
2461029.500000000, A.D. 2025-Dec-20 00:00:00.0000, 2.826656437593941E+08, 7.377020019085743E+07, -2.991927519100856E+06,
2461036.500000000, A.D. 2025-Dec-27 00:00:00.0000, 2.811444615681370E+08, 8.805760381902507E+07, -4.934306090407778E+06,
2461043.500000000, A.D. 2026-Jan-03 00:00:00.0000, 2.790898573927023E+08, 1.021780429238827E+08, -6.867338921805441E+06,
2461050.500000000, A.D. 2026-Jan-10 00:00:00.0000, 2.765196519698370E+08, 1.161098282172462E+08, -8.787701093384497E+06,
2461057.500000000, A.D. 2026-Jan-17 00:00:00.0000, 2.734524994451898E+08, 1.298330646253172E+08, -1.069228684858704E+07,
2461064.500000000, A.D. 2026-Jan-24 00:00:00.0000, 2.699076928240962E+08, 1.433296360557608E+08, -1.257821226749024E+07,
2461071.500000000, A.D. 2026-Jan-31 00:00:00.0000, 2.659049832473546E+08, 1.565831708758541E+08, -1.444281504845209E+07,
2461078.500000000, A.D. 2026-Feb-07 00:00:00.0000, 2.614644145166753E+08, 1.695789912459970E+08, -1.628365180192790E+07,
2461085.500000000, A.D. 2026-Feb-14 00:00:00.0000, 2.566061738930761E+08, 1.823040493876042E+08, -1.809849327474352E+07,
2461092.500000000, A.D. 2026-Feb-21 00:00:00.0000, 2.513504598156299E+08, 1.947468542626705E+08, -1.988531787474192E+07,
2461099.500000000, A.D. 2026-Feb-28 00:00:00.0000, 2.457173652824922E+08, 2.068973924657052E+08, -2.164230365982290E+07,
2461106.500000000, A.D. 2026-Mar-07 00:00:00.0000, 2.397267743244780E+08, 2.187470437548186E+08, -2.336781908887545E+07,
2461113.500000000, A.D. 2026-Mar-14 00:00:00.0000, 2.333982735991845E+08, 2.302884909679066E+08, -2.506041327632770E+07,
2461120.500000000, A.D. 2026-Mar-21 00:00:00.0000, 2.267510799483604E+08, 2.415156289803335E+08, -2.671880593762590E+07,
2461127.500000000, A.D. 2026-Mar-28 00:00:00.0000, 2.198039808341988E+08, 2.524234751996741E+08, -2.834187697878526E+07,
2461134.500000000, A.D. 2026-Apr-04 00:00:00.0000, 2.125752859078516E+08, 2.630080818338539E+08, -2.992865593913175E+07,
2461141.500000000, A.D. 2026-Apr-11 00:00:00.0000, 2.050827888203512E+08, 2.732664505344431E+08, -3.147831149506758E+07,
2461148.500000000, A.D. 2026-Apr-18 00:00:00.0000, 1.973437382901288E+08, 2.831964501550609E+08, -3.299014116522187E+07,
2461155.500000000, A.D. 2026-Apr-25 00:00:00.0000, 1.893748173736336E+08, 2.927967381917654E+08, -3.446356132034799E+07,
2461162.500000000, A.D. 2026-May-02 00:00:00.0000, 1.811921299296328E+08, 3.020666862551693E+08, -3.589809758050717E+07,
2461169.500000000, A.D. 2026-May-09 00:00:00.0000, 1.728111934282084E+08, 3.110063097414265E+08, -3.729337567250015E+07,
2461176.500000000, A.D. 2026-May-16 00:00:00.0000, 1.642469375824360E+08, 3.196162019562880E+08, -3.864911280890927E+07,
2461183.500000000, A.D. 2026-May-23 00:00:00.0000, 1.555137080350626E+08, 3.278974737359409E+08, -3.996510953335086E+07,
2461190.500000000, A.D. 2026-May-30 00:00:00.0000, 1.466252722812102E+08, 3.358516988251217E+08, -4.124124182529730E+07,
2461197.500000000, A.D. 2026-Jun-06 00:00:00.0000, 1.375948268420824E+08, 3.434808616250453E+08, -4.247745370200983E+07,
2461204.500000000, A.D. 2026-Jun-13 00:00:00.0000, 1.284350087713149E+08, 3.507873073637039E+08, -4.367375063220645E+07,
2461211.500000000, A.D. 2026-Jun-20 00:00:00.0000, 1.191579104849185E+08, 3.577736974293590E+08, -4.483019346528462E+07,
2461218.500000000, A.D. 2026-Jun-27 00:00:00.0000, 1.097750957695470E+08, 3.644429693164648E+08, -4.594689273079069E+07,
2461225.500000000, A.D. 2026-Jul-04 00:00:00.0000, 1.002976165822105E+08, 3.707983001879013E+08, -4.702400335119537E+07,
2461232.500000000, A.D. 2026-Jul-11 00:00:00.0000, 9.073603056464130E+07, 3.768430736947901E+08, -4.806171977997230E+07,
2461239.500000000, A.D. 2026-Jul-18 00:00:00.0000, 8.110041908396618E+07, 3.825808498513595E+08, -4.906027154799405E+07,
2461246.500000000, A.D. 2026-Jul-25 00:00:00.0000, 7.140040558694413E+07, 3.880153377419024E+08, -5.001991919613093E+07,
2461253.500000000, A.D. 2026-Aug-01 00:00:00.0000, 6.164517411734500E+07, 3.931503707918227E+08, -5.094095057803865E+07,
2461260.500000000, A.D. 2026-Aug-08 00:00:00.0000, 5.184348804661743E+07, 3.979898843553037E+08, -5.182367753163563E+07,
2461267.500000000, A.D. 2026-Aug-15 00:00:00.0000, 4.200370929771860E+07, 4.025378958690495E+08, -5.266843289715730E+07,
2461274.500000000, A.D. 2026-Aug-22 00:00:00.0000, 3.213381719295222E+07, 4.067984886039139E+08, -5.347556769000395E+07,
2461281.500000000, A.D. 2026-Aug-29 00:00:00.0000, 2.224142455170286E+07, 4.107757974595180E+08, -5.424544830841680E+07,
2461288.500000000, A.D. 2026-Sep-05 00:00:00.0000, 1.233379310102099E+07, 4.144739937622206E+08, -5.497845418388660E+07,
$$EOE